     3.04           N: GNSS NAV DATA    C: BDS              RINEX VERSION / TYPE
cnvtToRINEX 3.14.0  convertToRINEX OPR  20250615 162729 UTC PGM / RUN BY / DATE 
----------------------------------------------------------- COMMENT             
BDSA   0.0000D+00  0.0000D+00  0.0000D+00  0.0000D+00       IONOSPHERIC CORR    
BDSB   0.0000D+00  0.0000D+00  0.0000D+00  0.0000D+00       IONOSPHERIC CORR    
BDUT  0.000000000000D+00 0.000000000000D+00      0    0     TIME SYSTEM CORR    
     4                                                      LEAP SECONDS        
                                                            END OF HEADER       
C29 2025 06 15 10 00 00 0.455861678347D-03 0.515498754794D-11 0.000000000000D+00
     0.100000000000D+01 0.102828125000D+03 0.377444293498D-08 0.569344962223D+00
     0.501936301589D-05 0.246025039814D-03 0.876840204000D-05 0.528262229538D+04
     0.360000000000D+05-0.791624188423D-08 0.858959841845D+00 0.186264514923D-07
     0.951701385726D+00 0.179562500000D+03 0.186752389803D+01-0.671956561117D-08
    -0.176435920693D-09 0.100000000000D+01 0.101500000000D+04 0.000000000000D+00
     0.200000000000D+01 0.000000000000D+00 0.299999997067D-09 0.300000000000D-09
     0.360000000000D+05 0.100000000000D+01 0.000000000000D+00 0.000000000000D+00
C19 2025 06 15 10 00 00-0.948805012740D-03 0.234745556327D-11 0.000000000000D+00
     0.100000000000D+01-0.120796875000D+03 0.319906182519D-08 0.833079927180D+00
    -0.593997538090D-05 0.912072602659D-03 0.495370477438D-05 0.528263375854D+04
     0.360000000000D+05 0.558793544769D-08 0.299662190311D+01 0.833533704281D-07
     0.984177230818D+00 0.272359375000D+03-0.557078562364D+00-0.663599070136D-08
    -0.143220251413D-09 0.100000000000D+01 0.101500000000D+04 0.000000000000D+00
     0.200000000000D+01 0.000000000000D+00 0.102999999640D-07 0.103000000000D-07
     0.360000000000D+05 0.100000000000D+01 0.000000000000D+00 0.000000000000D+00
C20 2025 06 15 10 00 00-0.845155911520D-03-0.146638257092D-11 0.000000000000D+00
     0.100000000000D+01-0.116609375000D+03 0.314548816506D-08 0.105058257150D+01
    -0.568572431803D-05 0.859488616697D-03 0.494718551636D-05 0.528264045906D+04
     0.360000000000D+05-0.558793544769D-07 0.299725007136D+01 0.172294676304D-07
     0.984163786601D+00 0.272640625000D+03-0.480116298657D-01-0.662813323121D-08
    -0.127148153374D-09 0.100000000000D+01 0.101500000000D+04 0.000000000000D+00
     0.200000000000D+01 0.000000000000D+00 0.128000001709D-07 0.128000000000D-07
     0.360000000000D+05 0.100000000000D+01 0.000000000000D+00 0.000000000000D+00
C22 2025 06 15 10 00 00 0.339057762176D-03 0.668709532192D-11 0.000000000000D+00
     0.100000000000D+01-0.124781250000D+03 0.336335438292D-08-0.972348367812D+00
    -0.617699697614D-05 0.789440120570D-03 0.501889735460D-05 0.528263280296D+04
     0.360000000000D+05-0.279396772385D-08 0.299795905120D+01 0.153668224812D-07
     0.983458326541D+00 0.269062500000D+03 0.452023622381D+00-0.676313885474D-08
    -0.192150860997D-09 0.100000000000D+01 0.101500000000D+04 0.000000000000D+00
     0.200000000000D+01 0.000000000000D+00 0.140000002702D-07 0.140000000000D-07
     0.376200000000D+05 0.100000000000D+01 0.000000000000D+00 0.000000000000D+00
C13 2025 06 15 10 00 00-0.362328719348D-04-0.104121156141D-10 0.000000000000D+00
     0.100000000000D+01-0.201187500000D+03 0.857892877539D-09-0.211088305471D+01
    -0.643217936158D-05 0.529462774284D-02-0.787572935224D-05 0.649311782646D+04
     0.360000000000D+05-0.232830643654D-07 0.241238885139D+01 0.284053385258D-07
     0.104220953061D+01 0.514234375000D+03-0.230830389193D+01-0.240474302434D-08
    -0.126433837905D-09 0.100000000000D+01 0.101500000000D+04 0.000000000000D+00
     0.200000000000D+01 0.000000000000D+00-0.949999989786D-08 0.280000000000D-08
     0.360000000000D+05 0.000000000000D+00 0.000000000000D+00 0.000000000000D+00
C 5 2025 06 15 08 00 00 0.420897384174D-03 0.248565612537D-10 0.000000000000D+00
     0.100000000000D+01 0.544375000000D+03 0.997684414703D-08 0.176505351443D+01
     0.179065391421D-04 0.773636973463D-03-0.451551750302D-05 0.649346813202D+04
     0.288000000000D+05-0.414438545704D-07-0.159156611500D+01 0.144354999065D-06
     0.650840915851D-01 0.141406250000D+03 0.294988738025D+01-0.890644241765D-08
     0.232152527227D-09 0.300000000000D+01 0.101500000000D+04 0.000000000000D+00
     0.200000000000D+01 0.000000000000D+00 0.200000002670D-09-0.950000000000D-08
     0.290100000000D+05 0.000000000000D+00 0.000000000000D+00 0.000000000000D+00
C22 2025 06 15 10 00 00 0.339057762176D-03 0.668709532192D-11 0.000000000000D+00
     0.100000000000D+01-0.124781250000D+03 0.336335438292D-08-0.972348367812D+00
    -0.617699697614D-05 0.789440120570D-03 0.501889735460D-05 0.528263280296D+04
     0.360000000000D+05-0.279396772385D-08 0.299795905120D+01 0.153668224812D-07
     0.983458326541D+00 0.269062500000D+03 0.452023622381D+00-0.676313885474D-08
    -0.192150860997D-09 0.100000000000D+01 0.101500000000D+04 0.000000000000D+00
     0.200000000000D+01 0.000000000000D+00 0.140000002702D-07 0.140000000000D-07
     0.388800000000D+05 0.100000000000D+01 0.000000000000D+00 0.000000000000D+00
C20 2025 06 15 11 00 00-0.845161150210D-03-0.146371803567D-11 0.000000000000D+00
     0.100000000000D+01-0.117921875000D+03 0.320620497988D-08 0.153944902791D+01
    -0.572809949517D-05 0.859454390593D-03 0.467849895358D-05 0.528263827515D+04
     0.396000000000D+05-0.698491930962D-07 0.299722651838D+01-0.572763383389D-07
     0.984163347725D+00 0.280921875000D+03-0.493179791375D-01-0.662384733840D-08
    -0.182507602174D-09 0.100000000000D+01 0.101500000000D+04 0.000000000000D+00
     0.200000000000D+01 0.000000000000D+00 0.128000001709D-07 0.128000000000D-07
     0.396000000000D+05 0.100000000000D+01 0.000000000000D+00 0.000000000000D+00
C22 2025 06 15 11 00 00 0.339081860147D-03 0.669242439244D-11 0.000000000000D+00
     0.100000000000D+01-0.123953125000D+03 0.338942689752D-08-0.484814416181D+00
    -0.614346936345D-05 0.789517653175D-03 0.502308830619D-05 0.528263290596D+04
     0.396000000000D+05-0.982545316219D-07 0.299793471995D+01-0.679865479469D-07
     0.983457334683D+00 0.269609375000D+03 0.452052927556D+00-0.682599861596D-08
    -0.171078554680D-09 0.100000000000D+01 0.101500000000D+04 0.000000000000D+00
     0.200000000000D+01 0.000000000000D+00 0.140000002702D-07 0.140000000000D-07
     0.396000000000D+05 0.100000000000D+01 0.000000000000D+00 0.000000000000D+00
C19 2025 06 15 11 00 00-0.948795699514D-03 0.241406894474D-11 0.000000000000D+00
     0.100000000000D+01-0.114125000000D+03 0.320263340254D-08 0.131968127292D+01
    -0.560656189919D-05 0.912372721359D-03 0.489829108119D-05 0.528263556862D+04
     0.396000000000D+05 0.838190317154D-07 0.299659772985D+01 0.447034835815D-07
     0.984176505210D+00 0.273718750000D+03-0.556117530516D+00-0.668313552228D-08
    -0.953611150304D-10 0.100000000000D+01 0.101500000000D+04 0.000000000000D+00
     0.200000000000D+01 0.000000000000D+00 0.102999999640D-07 0.103000000000D-07
     0.396000000000D+05 0.100000000000D+01 0.000000000000D+00 0.000000000000D+00
C29 2025 06 15 11 00 00 0.455880304798D-03 0.515409936952D-11 0.000000000000D+00
     0.100000000000D+01 0.102437500000D+03 0.379801534544D-08 0.105763907388D+01
     0.497838482261D-05 0.246004550718D-03 0.879447907209D-05 0.528262198257D+04
     0.396000000000D+05-0.195577740669D-07 0.858935667124D+00 0.214204192162D-07
     0.951700706932D+00 0.177953125000D+03 0.186679725491D+01-0.672885171225D-08
    -0.176793078427D-09 0.100000000000D+01 0.101500000000D+04 0.000000000000D+00
     0.200000000000D+01 0.000000000000D+00 0.299999997067D-09 0.300000000000D-09
     0.399000000000D+05 0.100000000000D+01 0.000000000000D+00 0.000000000000D+00
C12 2025 06 15 11 00 00-0.367281027138D-04 0.170592429072D-10 0.447233396150D-18
     0.110000000000D+02 0.122296875000D+03 0.340264173369D-08 0.250296415592D+01
     0.613182783127D-05 0.960632460192D-03 0.911671668291D-05 0.528262988853D+04
     0.396000000000D+05 0.516884028912D-07 0.923618989375D+00-0.847503542900D-07
     0.976909784419D+00 0.181265625000D+03-0.158862306908D+01-0.655527305343D-08
    -0.185007706314D-09 0.100000000000D+01 0.101500000000D+04 0.000000000000D+00
     0.200000000000D+01 0.000000000000D+00 0.330000005100D-08 0.000000000000D+00
     0.407700000000D+05 0.100000000000D+02 0.000000000000D+00 0.000000000000D+00
